[
    {
        "Altitude(m)": 706782.1490195777,
        "Argument of Periapsis(deg)": 0.010251109067964361,
        "Eccentricity": 0.0,
        "Inclination(deg)": 45.0,
        "Latitude(deg)": -15.729498511693652,
        "Longitude(deg)": -121.9612939201019,
        "Mean Anomaly(deg)": -22.347405017267235,
        "RAAN(deg)": 354.99032325268763,
        "Satellite Name": "Constellation 1 1582",
        "Satellite Number": 1582,
        "Semi-Major Axis(m)": 7083131.272910544,
        "Time(s)": 171
    },
    {
        "Altitude(m)": 706770.1156783368,
        "Argument of Periapsis(deg)": 0.010311057074209765,
        "Eccentricity": 0.0,
        "Inclination(deg)": 45.0,
        "Latitude(deg)": -15.688069789817547,
        "Longitude(deg)": -121.91921352386993,
        "Mean Anomaly(deg)": -22.28670387701735,
        "RAAN(deg)": 354.99026666352205,
        "Satellite Name": "Constellation 1 1582",
        "Satellite Number": 1582,
        "Semi-Major Axis(m)": 7083131.272910544,
        "Time(s)": 172
    },
    {
        "Altitude(m)": 706758.0946905235,
        "Argument of Periapsis(deg)": 0.010371005080455171,
        "Eccentricity": 0.0,
        "Inclination(deg)": 45.0,
        "Latitude(deg)": -15.6466310696454,
        "Longitude(deg)": -121.87715165265307,
        "Mean Anomaly(deg)": -22.226002736767512,
        "RAAN(deg)": 354.9902100743565,
        "Satellite Name": "Constellation 1 1582",
        "Satellite Number": 1582,
        "Semi-Major Axis(m)": 7083131.272910544,
        "Time(s)": 173
    },
    {
        "Altitude(m)": 706746.0860929018,
        "Argument of Periapsis(deg)": 0.010430953086700577,
        "Eccentricity": 0.0,
        "Inclination(deg)": 45.0,
        "Latitude(deg)": -15.605182382386612,
        "Longitude(deg)": -121.83510825177572,
        "Mean Anomaly(deg)": -22.165301596517523,
        "RAAN(deg)": 354.9901534851909,
        "Satellite Name": "Constellation 1 1582",
        "Satellite Number": 1582,
        "Semi-Major Axis(m)": 7083131.272910544,
        "Time(s)": 174
    },
    {
        "Altitude(m)": 706734.0899221858,
        "Argument of Periapsis(deg)": 0.010490901092945983,
        "Eccentricity": 0.0,
        "Inclination(deg)": 45.0,
        "Latitude(deg)": -15.563723759215236,
        "Longitude(deg)": -121.79308326659277,
        "Mean Anomaly(deg)": -22.10460045626774,
        "RAAN(deg)": 354.9900968960253,
        "Satellite Name": "Constellation 1 1582",
        "Satellite Number": 1582,
        "Semi-Major Axis(m)": 7083131.272910544,
        "Time(s)": 175
    },
    {
        "Altitude(m)": 706722.1062150159,
        "Argument of Periapsis(deg)": 0.010550849099191389,
        "Eccentricity": 0.0,
        "Inclination(deg)": 45.0,
        "Latitude(deg)": -15.522255231269213,
        "Longitude(deg)": -121.7510766424885,
        "Mean Anomaly(deg)": -22.0438993160178,
        "RAAN(deg)": 354.9900403068598,
        "Satellite Name": "Constellation 1 1582",
        "Satellite Number": 1582,
        "Semi-Major Axis(m)": 7083131.272910544,
        "Time(s)": 176
    },
    {
        "Altitude(m)": 706710.1350079749,
        "Argument of Periapsis(deg)": 0.010610797105436795,
        "Eccentricity": 0.0,
        "Inclination(deg)": 45.0,
        "Latitude(deg)": -15.48077682965139,
        "Longitude(deg)": -121.70908832487754,
        "Mean Anomaly(deg)": -21.983198175767864,
        "RAAN(deg)": 354.9899837176942,
        "Satellite Name": "Constellation 1 1582",
        "Satellite Number": 1582,
        "Semi-Major Axis(m)": 7083131.272910544,
        "Time(s)": 177
    },
    {
        "Altitude(m)": 706698.1763375757,
        "Argument of Periapsis(deg)": 0.0106707451116822,
        "Eccentricity": 0.0,
        "Inclination(deg)": 45.0,
        "Latitude(deg)": -15.43928858542894,
        "Longitude(deg)": -121.66711842730146,
        "Mean Anomaly(deg)": -21.922497035517928,
        "RAAN(deg)": 354.9899271285287,
        "Satellite Name": "Constellation 1 1582",
        "Satellite Number": 1582,
        "Semi-Major Axis(m)": 7083131.272910544,
        "Time(s)": 178
    },
    {
        "Altitude(m)": 706686.2302402728,
        "Argument of Periapsis(deg)": 0.010730693117927606,
        "Eccentricity": 0.0,
        "Inclination(deg)": 45.0,
        "Latitude(deg)": -15.397790529634436,
        "Longitude(deg)": -121.62516655904051,
        "Mean Anomaly(deg)": -21.86179589526809,
        "RAAN(deg)": 354.98987053936304,
        "Satellite Name": "Constellation 1 1582",
        "Satellite Number": 1582,
        "Semi-Major Axis(m)": 7083131.272910544,
        "Time(s)": 179
    },
    {
        "Altitude(m)": 706674.2967524632,
        "Argument of Periapsis(deg)": 0.01079064112417301,
        "Eccentricity": 0.0,
        "Inclination(deg)": 45.0,
        "Latitude(deg)": -15.356282693264433,
        "Longitude(deg)": -121.58323283369558,
        "Mean Anomaly(deg)": -21.801094755018156,
        "RAAN(deg)": 354.98981395019746,
        "Satellite Name": "Constellation 1 1582",
        "Satellite Number": 1582,
        "Semi-Major Axis(m)": 7083131.272910544,
        "Time(s)": 180
    },
    {
        "Altitude(m)": 706662.3759104682,
        "Argument of Periapsis(deg)": 0.010850589130418416,
        "Eccentricity": 0.0,
        "Inclination(deg)": 45.0,
        "Latitude(deg)": -15.314765107280941,
        "Longitude(deg)": -121.5413171968009,
        "Mean Anomaly(deg)": -21.740393614768216,
        "RAAN(deg)": 354.98975736103193,
        "Satellite Name": "Constellation 1 1582",
        "Satellite Number": 1582,
        "Semi-Major Axis(m)": 7083131.272910544,
        "Time(s)": 181
    },
    {
        "Altitude(m)": 706650.4677505483,
        "Argument of Periapsis(deg)": 0.01091053713666382,
        "Eccentricity": 0.0,
        "Inclination(deg)": 45.0,
        "Latitude(deg)": -15.273237802611058,
        "Longitude(deg)": -121.4994195939205,
        "Mean Anomaly(deg)": -21.679692474518433,
        "RAAN(deg)": 354.98970077186635,
        "Satellite Name": "Constellation 1 1582",
        "Satellite Number": 1582,
        "Semi-Major Axis(m)": 7083131.272910544,
        "Time(s)": 182
    },
    {
        "Altitude(m)": 706638.5723088987,
        "Argument of Periapsis(deg)": 0.010970485142909228,
        "Eccentricity": 0.0,
        "Inclination(deg)": 45.0,
        "Latitude(deg)": -15.231700810146702,
        "Longitude(deg)": -121.45753997064773,
        "Mean Anomaly(deg)": -21.618991334268493,
        "RAAN(deg)": 354.98964418270083,
        "Satellite Name": "Constellation 1 1582",
        "Satellite Number": 1582,
        "Semi-Major Axis(m)": 7083131.272910544,
        "Time(s)": 183
    },
    {
        "Altitude(m)": 706626.6896216656,
        "Argument of Periapsis(deg)": 0.011030433149154634,
        "Eccentricity": 0.0,
        "Inclination(deg)": 45.0,
        "Latitude(deg)": -15.190154160745362,
        "Longitude(deg)": -121.4156782726063,
        "Mean Anomaly(deg)": -21.558290194018507,
        "RAAN(deg)": 354.9895875935352,
        "Satellite Name": "Constellation 1 1582",
        "Satellite Number": 1582,
        "Semi-Major Axis(m)": 7083131.272910544,
        "Time(s)": 184
    },
    {
        "Altitude(m)": 706614.819724902,
        "Argument of Periapsis(deg)": 0.01109038115540004,
        "Eccentricity": 0.0,
        "Inclination(deg)": 45.0,
        "Latitude(deg)": -15.148597885229877,
        "Longitude(deg)": -121.37383461354645,
        "Mean Anomaly(deg)": -21.49758905376867,
        "RAAN(deg)": 354.9895310043696,
        "Satellite Name": "Constellation 1 1582",
        "Satellite Number": 1582,
        "Semi-Major Axis(m)": 7083131.272910544,
        "Time(s)": 185
    },
    {
        "Altitude(m)": 706602.9626546296,
        "Argument of Periapsis(deg)": 0.011150329161645444,
        "Eccentricity": 0.0,
        "Inclination(deg)": 45.0,
        "Latitude(deg)": -15.107032014388857,
        "Longitude(deg)": -121.33200860295698,
        "Mean Anomaly(deg)": -21.436887913518785,
        "RAAN(deg)": 354.9894744152041,
        "Satellite Name": "Constellation 1 1582",
        "Satellite Number": 1582,
        "Semi-Major Axis(m)": 7083131.272910544,
        "Time(s)": 186
    },
    {
        "Altitude(m)": 706591.1184467737,
        "Argument of Periapsis(deg)": 0.01121027716789085,
        "Eccentricity": 0.0,
        "Inclination(deg)": 45.0,
        "Latitude(deg)": -15.065456578976029,
        "Longitude(deg)": -121.29020035464738,
        "Mean Anomaly(deg)": -21.376186773268845,
        "RAAN(deg)": 354.9894178260385,
        "Satellite Name": "Constellation 1 1582",
        "Satellite Number": 1582,
        "Semi-Major Axis(m)": 7083131.272910544,
        "Time(s)": 187
    },
    {
        "Altitude(m)": 706579.2871372172,
        "Argument of Periapsis(deg)": 0.011270225174136258,
        "Eccentricity": 0.0,
        "Inclination(deg)": 45.0,
        "Latitude(deg)": -15.023871609711133,
        "Longitude(deg)": -121.24840981436012,
        "Mean Anomaly(deg)": -21.31548563301891,
        "RAAN(deg)": 354.989361236873,
        "Satellite Name": "Constellation 1 1582",
        "Satellite Number": 1582,
        "Semi-Major Axis(m)": 7083131.272910544,
        "Time(s)": 188
    },
    {
        "Altitude(m)": 706567.4687617715,
        "Argument of Periapsis(deg)": 0.011330173180381662,
        "Eccentricity": 0.0,
        "Inclination(deg)": 45.0,
        "Latitude(deg)": -14.982277137279791,
        "Longitude(deg)": -121.20663692786724,
        "Mean Anomaly(deg)": -21.254784492769073,
        "RAAN(deg)": 354.9893046477074,
        "Satellite Name": "Constellation 1 1582",
        "Satellite Number": 1582,
        "Semi-Major Axis(m)": 7083131.272910544,
        "Time(s)": 189
    }
]